[{"OBJECT_NAME":"OBJECT D","OBJECT_ID":"2024-092D","EPOCH":"2026-03-09T21:12:33.501312","MEAN_MOTION":15.33078357,"ECCENTRICITY":0.00083397,"INCLINATION":97.6418,"RA_OF_ASC_NODE":198.2302,"ARG_OF_PERICENTER":141.9853,"MEAN_ANOMALY":218.1979,"EPHEMERIS_TYPE":0,"CLASSIFICATION_TYPE":"U","NORAD_CAT_ID":59776,"ELEMENT_SET_NO":999,"REV_AT_EPOCH":10051,"BSTAR":0.00076511005,"MEAN_MOTION_DOT":0.00024443,"MEAN_MOTION_DDOT":0},{"OBJECT_NAME":"STARLINK-32228","OBJECT_ID":"2024-144W","EPOCH":"2026-03-09T16:29:53.233152","MEAN_MOTION":15.30176905,"ECCENTRICITY":0.00011565,"INCLINATION":53.1607,"RA_OF_ASC_NODE":216.7931,"ARG_OF_PERICENTER":99.2553,"MEAN_ANOMALY":260.8579,"EPHEMERIS_TYPE":0,"CLASSIFICATION_TYPE":"U","NORAD_CAT_ID":60445,"ELEMENT_SET_NO":999,"REV_AT_EPOCH":8935,"BSTAR":-1.1178031e-5,"MEAN_MOTION_DOT":-6.9e-6,"MEAN_MOTION_DDOT":0}]
