2024-092D               
1 59776U 24092D   26068.88372108  .00024443  00000+0  76511-3 0  9999
2 59776  97.6418 198.2302 0008340 141.9853 218.1979 15.33078357100518
STARLINK-32228          
1 60445U 24144W   26068.68742168 -.00000690  00000+0 -11178-4 0  9996
2 60445  53.1607 216.7931 0001156  99.2553 260.8579 15.30176905 89357
